TDRS 3                  
1 19548U 88091B   24193.46420580 -.00000297  00000+0  00000+0 0  9998
2 19548  13.1435 345.7511 0034248 340.2745  81.8352  1.00281768118312
HST                     
1 20580U 90037B   24193.38154185  .00004547  00000+0  20796-3 0  9994
2 20580  28.4672 182.9908 0002330 298.4510  61.5847 15.18039944680717
TDRS 5                  
1 21639U 91054B   24193.33014329 -.00000300  00000+0  00000+0 0  9996
2 21639  14.1592 358.9302 0002974 204.3534 143.0268  1.00276833120634
TDRS 6                  
1 22314U 93003B   24193.46286955 -.00000294  00000+0  00000+0 0  9995
2 22314  14.1632   2.2326 0012118 157.5007 250.8357  1.00267726115338
TDRS 7                  
1 23613U 95035B   24192.97271615 -.00000201  00000+0  00000+0 0  9995
2 23613  13.6711 353.0624 0027767  72.8766 298.4625  1.00269651106175
ISS (ZARYA)             
1 25544U 98067A   24193.51095683  .00010959  00000+0  20123-3 0  9990
2 25544  51.6370 194.8343 0010328  54.5375 305.6576 15.49745721462323
LANDSAT 7               
1 25682U 99020A   24193.61613411  .00000653  00000+0  14281-3 0  9997
2 25682  97.8864 219.2509 0001187  92.8680  17.7955 14.60741082342708
TERRA                   
1 25994U 99068A   24193.57195354  .00000692  00000+0  15407-3 0  9995
2 25994  98.0469 256.3429 0000672 315.7586 180.7059 14.59855052306607
TDRS 8                  
1 26388U 00034A   24193.30908382  .00000096  00000+0  00000+0 0  9999
2 26388  11.5719  37.0939 0000564 232.5306 323.9534  1.00264684 88107
TIMED                   
1 26998U 01055B   24193.46227930  .00001476  00000+0  15112-3 0  9997
2 26998  74.0688 212.6190 0002698 266.8311  93.2563 14.91531538225447
AQUA                    
1 27424U 02022A   24193.57418972  .00001326  00000+0  28965-3 0  9991
2 27424  98.3311 143.0383 0002094  66.4360 348.4656 14.59460921180239
TDRS 10                 
1 27566U 02055A   24193.34279601  .00000089  00000+0  00000+0 0  9994
2 27566   9.6076  45.2370 0005028 352.7636 203.9434  1.00273508 79157
SORCE                   
1 27651U 03004A   24193.53849393  .00003905  00000+0  35879-3 0  9992
2 27651  39.9937 306.2269 0020226  47.3552 312.8941 14.95405644165898
AURA                    
1 28376U 04026A   24193.51644468  .00001288  00000+0  28605-3 0  9997
2 28376  98.2514 138.1859 0001917  50.5303 309.6065 14.58694415 63225
SWIFT                   
1 28485U 04047A   24193.59842749  .00013230  00000+0  57467-3 0  9999
2 28485  20.5578   6.3508 0007310 235.9244 124.0500 15.19793021 77899
THEMIS A                
1 30580U 07004A   24186.54627366 -.00000115  00000+0  00000+0 0  9993
2 30580   9.8802 263.7065 8349696 323.5603   2.5308  0.87834453 35010
THEMIS D                
1 30797U 07004D   24192.29708703 -.00000211  00000+0  00000+0 0  9994
2 30797   5.6101 260.7308 8344140 331.0764   8.9882  0.87835657 34860
THEMIS E                
1 30798U 07004E   24185.56407969 -.00000143  00000+0  00000+0 0  9991
2 30798   7.4212 280.3168 8334252 312.0720  55.1285  0.87833114 59640
FGRST (GLAST)           
1 33053U 08029A   24192.98425438  .00003976  00000+0  18009-3 0  9999
2 33053  25.5836  45.8547 0009922 312.7780  47.1921 15.17007779888190
WISE                    
1 36119U 09071A   24193.59618436  .00061053  00000+0  55479-3 0  9995
2 36119  97.1410 230.5680 0002797 104.7615 255.3957 15.67792338812061
TDRS 11                 
1 39070U 13004A   24193.56230024  .00000085  00000+0  00000+0 0  9999
2 39070   2.7567  12.5411 0006417  55.1225 250.4047  1.00266725 39610
TDRS 12                 
1 39504U 14004A   24193.46151584 -.00000264  00000+0  00000+0 0  9994
2 39504   3.5546   3.9926 0003956 190.8201 220.2525  1.00275492 37209
GPM-CORE                
1 39574U 14009C   24193.47418734  .00010290  00000+0  22487-3 0  9996
2 39574  64.9848 151.7613 0006538 261.4236  98.6163 15.44611329588807
MMS 1                   
1 40482U 15011A   24193.50001157 -.00001360  00000+0  00000+0 0  9993
2 40482  49.3551   9.6134 9079591 148.0003  92.5229  0.28398428  1370
MMS 2                   
1 40483U 15011B   24193.50001157 -.00001360  00000+0  00000+0 0  9994
2 40483  49.3552   9.6133 9079671 148.0004  92.2602  0.28394777  1376
MMS 3                   
1 40484U 15011C   24193.50001157 -.00001360  00000+0  00000+0 0  9995
2 40484  49.3551   9.6134 9079667 148.0004  92.3454  0.28395043  1375
MMS 4                   
1 40485U 15011D   24193.50001157 -.00001363  00000+0  00000+0 0  9999
2 40485  49.3573   9.6114 9080498 148.0021  91.1535  0.28358624  1305
TDRS 13                 
1 42915U 17047A   24193.46013274 -.00000092  00000+0  00000+0 0  9996
2 42915   3.6211 345.1532 0017652 118.4167 340.4755  1.00272543 25276
NOAA 20 (JPSS-1)        
1 43013U 17073A   24193.51798629  .00000130  00000+0  82305-4 0  9990
2 43013  98.7064 131.0327 0001960 120.6990 239.4379 14.19541540344357
